[{"OBJECT_NAME":"STARLINK-34150","OBJECT_ID":"2025-101E","EPOCH":"2026-03-09T04:08:41.179776","MEAN_MOTION":15.27562634,"ECCENTRICITY":6.953e-5,"INCLINATION":43.0019,"RA_OF_ASC_NODE":1.1076,"ARG_OF_PERICENTER":271.663,"MEAN_ANOMALY":88.4142,"EPHEMERIS_TYPE":0,"CLASSIFICATION_TYPE":"U","NORAD_CAT_ID":63998,"ELEMENT_SET_NO":999,"REV_AT_EPOCH":4697,"BSTAR":0.0013070268,"MEAN_MOTION_DOT":0.0003586,"MEAN_MOTION_DDOT":0},{"OBJECT_NAME":"GEOSCAN 2 (RS92S2)","OBJECT_ID":"2025-155Q","EPOCH":"2026-03-09T23:01:48.939744","MEAN_MOTION":15.28709337,"ECCENTRICITY":0.00085277,"INCLINATION":97.4463,"RA_OF_ASC_NODE":37.5259,"ARG_OF_PERICENTER":140.9505,"MEAN_ANOMALY":219.2352,"EPHEMERIS_TYPE":0,"CLASSIFICATION_TYPE":"U","NORAD_CAT_ID":64890,"ELEMENT_SET_NO":999,"REV_AT_EPOCH":6561,"BSTAR":0.00051551761,"MEAN_MOTION_DOT":0.00014341,"MEAN_MOTION_DDOT":0}]
